NORAD_CAT_ID,OBJECT_NAME,OBJECT_TYPE,EPOCH,MEAN_MOTION,ECCENTRICITY,INCLINATION,RA_OF_ASC_NODE,ARG_OF_PERICENTER,MEAN_ANOMALY,BSTAR,MEAN_MOTION_DOT,MEAN_MOTION_DDOT,TLE_LINE0,TLE_LINE1,TLE_LINE2,SEMIMAJOR_AXIS,PERIOD,APOGEE,PERIGEE,DECAYED
52986.0,STARLINK-4260,PAYLOAD,2022-09-16 22:00:00,15.08850734,0.0001884,53.2148,34.3738,46.9534,101.995,0.0011803,0.00018552,0.0,0 STARLINK-4260,1 52986U 22076A   22259.91667824  .00018552  00000-0  11803-2 0  9996,2 52986  53.2148  34.3738 0001884  46.9534 101.9950 15.08850734  1305,6917.848000000001,95.437,541.016,538.409,0.0
52986.0,STARLINK-4260,PAYLOAD,2022-09-17 14:00:01,15.08847982,0.0001937,53.2149,31.3806,52.7133,119.4655,-0.0011772,-0.00018979,0.0,0 STARLINK-4260,1 52986U 22076A   22260.58334491 -.00018979  00000-0 -11772-2 0  9992,2 52986  53.2149  31.3806 0001937  52.7133 119.4655 15.08847982  1305,6917.856,95.437,541.061,538.381,0.0
52986.0,STARLINK-4260,PAYLOAD,2022-09-17 22:00:00,15.08844543,0.0001952,53.2146,29.8843,48.0498,135.7258,-0.0016783,-0.00026903,0.0,0 STARLINK-4260,1 52986U 22076A   22260.91667824 -.00026903  00000-0 -16783-2 0  9991,2 52986  53.2146  29.8843 0001952  48.0498 135.7258 15.08844543  1304,6917.8669999999975,95.437,541.082,538.381,0.0
52986.0,STARLINK-4260,PAYLOAD,2022-09-18 14:00:01,15.08841672,0.0001948,53.2148,26.8913,50.4315,156.5742,-0.0006672,-0.00010892,0.0,0 STARLINK-4260,1 52986U 22076A   22261.58335648 -.00010892  00000-0 -66720-3 0  9998,2 52986  53.2148  26.8913 0001948  50.4315 156.5742 15.08841672  1300,6917.875,95.437,541.0880000000002,538.393,0.0
52986.0,STARLINK-4260,PAYLOAD,2022-09-18 22:00:00,15.08854937,0.000198,53.2147,25.3949,46.8011,171.7348,0.00014173,1.969e-05,0.0,0 STARLINK-4260,1 52986U 22076A   22261.91667824  .00001969  00000-0  14173-3 0  9997,2 52986  53.2147  25.3949 0001980  46.8011 171.7348 15.08854937  1309,6917.835,95.437,541.069,538.33,0.0
52986.0,STARLINK-4260,PAYLOAD,2022-09-19 06:00:02,15.08852001,0.0001814,53.2149,23.8967,51.4939,178.7206,-3.8765e-05,-9.05e-06,0.0,0 STARLINK-4260,1 52986U 22076A   22262.25002315 -.00000905  00000-0 -38765-4 0  9998,2 52986  53.2149  23.8967 0001814  51.4939 178.7206 15.08852001 11975,6917.844,95.437,540.964,538.4540000000002,0.0
52986.0,STARLINK-4260,PAYLOAD,2022-09-19 14:00:01,15.0883967,0.0001889999999999,53.215,22.402,45.0213,196.6823,-0.0021625,-0.0003454,0.0,0 STARLINK-4260,1 52986U 22076A   22262.58334491 -.00034540  00000-0 -21625-2 0  9994,2 52986  53.2150  22.4020 0001890  45.0213 196.6823 15.08839670 12028,6917.880999999999,95.438,541.054,538.439,0.0
52986.0,STARLINK-4260,PAYLOAD,2022-09-19 22:00:00,15.08835126,0.0001883,53.2151,20.9055,41.7195,211.5557,-0.00049976,-8.232e-05,0.0,0 STARLINK-4260,1 52986U 22076A   22262.91667824 -.00008232  00000-0 -49976-3 0  9999,2 52986  53.2151  20.9055 0001883  41.7195 211.5557 15.08835126  1306,6917.895,95.438,541.063,538.4580000000002,0.0
52986.0,STARLINK-4260,PAYLOAD,2022-09-20 06:00:00,15.088196900000002,0.0001768,53.2154,19.4074,47.1294,217.7405,0.0033610999999999,0.00053581,0.0,0 STARLINK-4260,1 52986U 22076A   22263.25001157  .00053581  00000-0  33611-2 0  9991,2 52986  53.2154  19.4074 0001768  47.1294 217.7405 15.08819690 12125,6917.941999999999,95.439,541.031,538.5840000000002,0.0
52986.0,STARLINK-4260,PAYLOAD,2022-09-20 14:00:01,15.08851264,0.0001942,53.2155,17.9126,43.7272,232.7333,-7.6038e-05,-1.499e-05,0.0,0 STARLINK-4260,1 52986U 22076A   22263.58334491 -.00001499  00000-0 -76038-4 0  9992,2 52986  53.2155  17.9126 0001942  43.7272 232.7333 15.08851264  1307,6917.846,95.437,541.054,538.368,0.0
52986.0,STARLINK-4260,PAYLOAD,2022-09-20 22:00:01,15.08884596,0.0001893,53.2156,16.4159,40.8936,247.2291,-0.0041008,-0.00065044,0.0,0 STARLINK-4260,1 52986U 22076A   22263.91668981 -.00065044  00000-0 -41008-2 0  9996,2 52986  53.2156  16.4159 0001893  40.8936 247.2291 15.08884596  1306,6917.744000000002,95.435,540.919,538.3,0.0
52986.0,STARLINK-4260,PAYLOAD,2022-09-21 14:00:01,15.08853415,0.0001868,53.216,13.4233,40.3258,270.9502,-0.00074084,-0.00012064,0.0,0 STARLINK-4260,1 52986U 22076A   22264.58334491 -.00012064  00000-0 -74084-3 0  9991,2 52986  53.2160  13.4233 0001868  40.3258 270.9502 15.08853415 12323,6917.839,95.437,540.997,538.4119999999998,0.0
52986.0,STARLINK-4260,PAYLOAD,2022-09-21 22:00:00,15.08863777,0.0001810999999999,53.2159,11.9265,36.8522,286.0275,-0.0032709,-0.00052003,0.0,0 STARLINK-4260,1 52986U 22076A   22264.91667824 -.00052003  00000-0 -32709-2 0  9991,2 52986  53.2159  11.9265 0001811  36.8522 286.0275 15.08863777  1304,6917.808000000001,95.436,540.9259999999998,538.42,0.0
52986.0,STARLINK-4260,PAYLOAD,2022-09-22 14:00:01,15.08855688,0.0001847,53.2162,8.9342,38.7248,307.3458,-0.0023997,-0.00038294,0.0,0 STARLINK-4260,1 52986U 22076A   22265.58334491 -.00038294  00000-0 -23997-2 0  9991,2 52986  53.2162   8.9342 0001847  38.7248 307.3458 15.08855688  1307,6917.831999999999,95.437,540.975,538.42,0.0
52986.0,STARLINK-4260,PAYLOAD,2022-09-22 22:00:00,15.08845254,0.0001849,53.216,7.4373,39.7884,317.8789,-0.0022765999999999,-0.00036344,0.0,0 STARLINK-4260,1 52986U 22076A   22265.91667824 -.00036344  00000-0 -22766-2 0  9994,2 52986  53.2160   7.4373 0001849  39.7884 317.8789 15.08845254 12529,6917.864000000001,95.437,541.008,538.45,0.0
52986.0,STARLINK-4260,PAYLOAD,2022-09-23 14:00:01,15.08822335,0.0001836,53.2161,4.4455,41.7438,339.0575,0.00032125,4.826e-05,0.0,0 STARLINK-4260,1 52986U 22076A   22266.58334491  .00004826  00000-0  32125-3 0  9998,2 52986  53.2161   4.4455 0001836  41.7438 339.0575 15.08822335  1300,6917.934,95.439,541.07,538.529,0.0
52986.0,STARLINK-4260,PAYLOAD,2022-09-23 22:00:00,15.08848678,0.0001789,53.2157,2.9483,40.9759,351.3974,-0.0014209,-0.00022836,0.0,0 STARLINK-4260,1 52986U 22076A   22266.91667824 -.00022836  00000-0 -14209-2 0  9999,2 52986  53.2157   2.9483 0001789  40.9759 351.3974 15.08848678 12673,6917.854,95.437,540.956,538.481,0.0
52986.0,STARLINK-4260,PAYLOAD,2022-09-24 14:00:01,15.08856332,0.0001846,53.2157,359.9566,41.735,13.9018,-0.00023694,-4.059e-05,0.0,0 STARLINK-4260,1 52986U 22076A   22267.58335648 -.00004059  00000-0 -23694-3 0  9995,2 52986  53.2157 359.9566 0001846  41.7350  13.9018 15.08856332  1304,6917.83,95.437,540.9730000000002,538.418,0.0
52986.0,STARLINK-4260,PAYLOAD,2022-09-24 22:00:00,15.08865966,0.0001744,53.2154,358.4593,39.77,27.4177,-0.0027583,-0.0004394999999999,0.0,0 STARLINK-4260,1 52986U 22076A   22267.91667824 -.00043950  00000-0 -27583-2 0  9999,2 52986  53.2154 358.4593 0001744  39.7700  27.4177 15.08865966  1307,6917.801,95.436,540.872,538.46,0.0
52986.0,STARLINK-4260,PAYLOAD,2022-09-25 14:00:01,15.08828062,0.0001816,53.2154,355.4672,37.216,53.1971,0.00082195,0.00012813,0.0,0 STARLINK-4260,1 52986U 22076A   22268.58334491  .00012813  00000-0  82195-3 0  9997,2 52986  53.2154 355.4672 0001816  37.2160  53.1971 15.08828062  1309,6917.917,95.438,541.038,538.526,0.0
52986.0,STARLINK-4260,PAYLOAD,2022-09-25 22:00:01,15.08861352,0.0001781,53.2154,353.9698,37.6236,64.4357,-0.0041321,-0.00065492,0.0,0 STARLINK-4260,1 52986U 22076A   22268.91668981 -.00065492  00000-0 -41321-2 0  9996,2 52986  53.2154 353.9698 0001781  37.6236  64.4357 15.08861352 12987,6917.815,95.436,540.9119999999998,538.448,0.0
52986.0,STARLINK-4260,PAYLOAD,2022-09-26 10:00:00,15.08838791,0.0001829,53.2153,351.7259,41.3613,258.0063,-0.0010909,-0.00017607,0.0,0 STARLINK-4260,1 52986U 22076A   22269.41667824 -.00017607  00000-0 -10909-2 0  9990,2 52986  53.2153 351.7259 0001829  41.3613 258.0063 15.08838791 13054,6917.884,95.438,541.014,538.484,0.0
52986.0,STARLINK-4260,PAYLOAD,2022-09-26 14:00:01,15.08820249,0.0001955999999999,53.2154,350.9785,39.469,85.696,0.0013846,0.00021805,0.0,0 STARLINK-4260,1 52986U 22076A   22269.58334491  .00021805  00000-0  13846-2 0  9995,2 52986  53.2154 350.9785 0001956  39.4690  85.6960 15.08820249  1308,6917.941,95.439,541.159,538.453,0.0
52986.0,STARLINK-4260,PAYLOAD,2022-09-26 22:00:00,15.08881595,0.0001888,53.2158,349.4702,38.4703,98.2891,-0.00617,-0.00097273,0.0,0 STARLINK-4260,1 52986U 22076A   22269.91667824 -.00097273  00000-0 -61700-2 0  9997,2 52986  53.2158 349.4702 0001888  38.4703  98.2891 15.08881595 13130,6917.753000000002,95.435,540.924,538.312,0.0
52986.0,STARLINK-4260,PAYLOAD,2022-09-27 00:00:00,15.08835236,0.0001857,53.2155,349.1064,42.1043,187.5503,-0.001222,-0.00019681,0.0,0 STARLINK-4260,1 52986U 22076A   22270.00001157 -.00019681  00000-0 -12220-2 0  9990,2 52986  53.2155 349.1064 0001857  42.1043 187.5503 15.08835236  1309,6917.895,95.438,541.045,538.475,0.0
52986.0,STARLINK-4260,PAYLOAD,2022-09-27 06:00:00,15.08826487,0.0001918,53.2156,347.9839,46.9422,101.3967,0.0009541,0.00014924,0.0,0 STARLINK-4260,1 52986U 22076A   22270.25001157  .00014924  00000-0  95410-3 0  9993,2 52986  53.2156 347.9839 0001918  46.9422 101.3967 15.08826487 13182,6917.922,95.438,541.114,538.46,0.0
52986.0,STARLINK-4260,PAYLOAD,2022-09-27 14:00:01,15.08819047,0.0002131999999999,53.2155,346.4893,41.6412,118.2867,0.0020269,0.00032099,0.0,0 STARLINK-4260,1 52986U 22076A   22270.58334491  .00032099  00000-0  20269-2 0  9991,2 52986  53.2155 346.4893 0002132  41.6412 118.2867 15.08819047  1306,6917.944,95.439,541.284,538.335,0.0
52986.0,STARLINK-4260,PAYLOAD,2022-09-27 22:00:01,15.08865948,0.0002034,53.2155,344.9915,42.7872,128.8039,-0.00040985,-6.809999999999999e-05,0.0,0 STARLINK-4260,1 52986U 22076A   22270.91668981 -.00006810  00000-0 -40985-3 0  9994,2 52986  53.2155 344.9915 0002034  42.7872 128.8039 15.08865948  1306,6917.801,95.436,541.073,538.259,0.0
52986.0,STARLINK-4260,PAYLOAD,2022-09-28 14:00:01,15.08806295,0.0002056999999999,53.2157,342.0,36.1501,158.5861,0.0028897,0.0004596,0.0,0 STARLINK-4260,1 52986U 22076A   22271.58334491  .00045960  00000-0  28897-2 0  9998,2 52986  53.2157 342.0000 0002057  36.1501 158.5861 15.08806295  1306,6917.983,95.44,541.271,538.425,0.0
